IRIDIUM 154             
1 43574U 18061F   26177.16197269  .00000106  00000+0  30683-4 0  9993
2 43574  86.3955  53.0541 0002177  89.4428 270.7017 14.34218039414694
IRIDIUM 163             
1 43575U 18061G   26177.21271398  .00000106  00000+0  30823-4 0  9992
2 43575  86.3953  52.9478 0002204  83.6937 276.4510 14.34217812414679
IRIDIUM 156             
1 43576U 18061H   26177.11758051  .00000215  00000+0  69735-4 0  9993
2 43576  86.3954  52.9949 0002005  85.3658 274.7767 14.34218486414653
IRIDIUM 164             
1 43577U 18061J   26177.16831571  .00000094  00000+0  26452-4 0  9992
2 43577  86.3955  53.0142 0002226  90.3170 269.8281 14.34218086414700
IRIDIUM 159             
1 43578U 18061K   26177.13660281  .00000018  00000+0 -78170-6 0  9991
2 43578  86.3947  52.9638 0002109  83.7170 276.4266 14.34217564414668
IRIDIUM 180             
1 43922U 19002A   26177.20586752 -.00000011  00000+0 -10844-4 0  9994
2 43922  86.3971 349.8266 0002134  89.3741 270.7699 14.34217259390286
IRIDIUM 176             
1 43923U 19002B   26177.19862670  .00000754  00000+0  11568-3 0  9994
2 43923  86.6093 349.7717 0002430  88.5506 271.5989 14.72225345400576
IRIDIUM 168             
1 43924U 19002C   26177.19951940  .00000079  00000+0  21024-4 0  9993
2 43924  86.3975 349.9065 0002234  90.6567 269.4885 14.34216507390267
IRIDIUM 173             
1 43925U 19002D   26177.18683981  .00000049  00000+0  10323-4 0  9997
2 43925  86.3972 349.8005 0002172  88.4137 271.7308 14.34217784390249
IRIDIUM 169             
1 43926U 19002E   26177.08582369  .00000243  00000+0  72913-4 0  9994
2 43926  86.4220  21.4722 0001690  81.8691 278.2699 14.38607187391501
IRIDIUM 172             
1 43927U 19002F   26177.18049536 -.00000001  00000+0 -74891-5 0  9992
2 43927  86.3969 349.8111 0002134  89.4892 270.6549 14.34216791390255
IRIDIUM 175             
1 43928U 19002G   26177.28676651  .00000300  00000+0  82727-4 0  9994
2 43928  86.4516 286.7171 0003661 154.9479 205.1900 14.43617429400298
IRIDIUM 171             
1 43929U 19002H   26177.23123740 -.00000011  00000+0 -10920-4 0  9993
2 43929  86.3979 350.0971 0001979  93.7070 266.4352 14.34217413390255
IRIDIUM 170             
1 43930U 19002J   26177.20480396  .00000736  00000+0  11281-3 0  9997
2 43930  86.6092 349.7715 0002519  86.2155 273.9350 14.72225843400586
IRIDIUM 167             
1 43931U 19002K   26177.22489463 -.00000011  00000+0 -11159-4 0  9997
2 43931  86.3969 349.8151 0001892  97.0183 263.1228 14.34217406390257
IRIDIUM 181             
1 56726U 23068S   26177.18860821  .00000271  00000+0  74594-4 0  9994
2 56726  86.4491  53.0275 0002410  87.8363 272.3114 14.43310705163732
IRIDIUM 177             
1 56727U 23068T   26176.90798590  .00000542  00000+0  67761-4 0  9996
2 56727  86.1972 324.6490 0002313  89.1000 271.0486 14.80225983167652
IRIDIUM 174             
1 56728U 23068U   26177.19246649  .00000780  00000+0  11986-3 0  9993
2 56728  86.6100 349.9248 0002420  80.5390 279.6101 14.72233415167342
IRIDIUM 178             
1 56729U 23068V   26176.49146706  .00000965  00000+0  12350-3 0  9990
2 56729  86.6533  21.8888 0002557  84.2279 275.9234 14.80247119167595
IRIDIUM 179             
1 56730U 23068W   26177.09452524  .00000396  00000+0  48719-4 0  9994
2 56730  86.6770  30.6433 0002392  89.1630 270.9866 14.80228421167687
