OBJECT_NAME,OBJECT_ID,EPOCH,MEAN_MOTION,ECCENTRICITY,INCLINATION,RA_OF_ASC_NODE,ARG_OF_PERICENTER,MEAN_ANOMALY,EPHEMERIS_TYPE,CLASSIFICATION_TYPE,NORAD_CAT_ID,ELEMENT_SET_NO,REV_AT_EPOCH,BSTAR,MEAN_MOTION_DOT,MEAN_MOTION_DDOT
IRIDIUM 154,2018-061F,2026-06-26T03:53:14.440416,14.34218039,.00021773,86.3955,53.0541,89.4428,270.7017,0,U,43574,999,41469,.30682927E-4,.106E-5,0
IRIDIUM 163,2018-061G,2026-06-26T05:06:18.487872,14.34217812,.00022049,86.3953,52.9478,83.6937,276.4510,0,U,43575,999,41467,.30823153E-4,.106E-5,0
IRIDIUM 156,2018-061H,2026-06-26T02:49:18.956064,14.34218486,.00020053,86.3954,52.9949,85.3658,274.7767,0,U,43576,999,41465,.69735467E-4,.215E-5,0
IRIDIUM 164,2018-061J,2026-06-26T04:02:22.477344,14.34218086,.00022265,86.3955,53.0142,90.3170,269.8281,0,U,43577,999,41470,.26451679E-4,.94E-6,0
IRIDIUM 159,2018-061K,2026-06-26T03:16:42.482784,14.34217564,.00021093,86.3947,52.9638,83.7170,276.4266,0,U,43578,999,41466,-.781698E-6,.18E-6,0
IRIDIUM 180,2019-002A,2026-06-26T04:56:26.953728,14.34217259,.00021345,86.3971,349.8266,89.3741,270.7699,0,U,43922,999,39028,-.10843919E-4,-.11E-6,0
IRIDIUM 176,2019-002B,2026-06-26T04:46:01.346880,14.72225345,.000243,86.6093,349.7717,88.5506,271.5989,0,U,43923,999,40057,.1156767E-3,.754E-5,0
IRIDIUM 168,2019-002C,2026-06-26T04:47:18.476160,14.34216507,.00022348,86.3975,349.9065,90.6567,269.4885,0,U,43924,999,39026,.21024172E-4,.79E-6,0
IRIDIUM 173,2019-002D,2026-06-26T04:29:02.959584,14.34217784,.00021724,86.3972,349.8005,88.4137,271.7308,0,U,43925,999,39024,.10322621E-4,.49E-6,0
IRIDIUM 169,2019-002E,2026-06-26T02:03:35.166816,14.38607187,.00016901,86.4220,21.4722,81.8691,278.2699,0,U,43926,999,39150,.72913458E-4,.243E-5,0
IRIDIUM 172,2019-002F,2026-06-26T04:19:54.799104,14.34216791,.00021347,86.3969,349.8111,89.4892,270.6549,0,U,43927,999,39025,-.7489099E-5,-.1E-7,0
IRIDIUM 175,2019-002G,2026-06-26T06:52:56.626464,14.43617429,.00036612,86.4516,286.7171,154.9479,205.1900,0,U,43928,999,40029,.82727142E-4,.3E-5,0
IRIDIUM 171,2019-002H,2026-06-26T05:32:58.911360,14.34217413,.00019791,86.3979,350.0971,93.7070,266.4352,0,U,43929,999,39025,-.10920029E-4,-.11E-6,0
IRIDIUM 170,2019-002J,2026-06-26T04:54:55.062144,14.72225843,.00025199,86.6092,349.7715,86.2155,273.9350,0,U,43930,999,40058,.11281237E-3,.736E-5,0
IRIDIUM 167,2019-002K,2026-06-26T05:23:50.896032,14.34217406,.00018928,86.3969,349.8151,97.0183,263.1228,0,U,43931,999,39025,-.11158765E-4,-.11E-6,0
IRIDIUM 181,2023-068S,2026-06-26T04:31:35.749344,14.43310705,.00024108,86.4491,53.0275,87.8363,272.3114,0,U,56726,999,16373,.74594234E-4,.271E-5,0
IRIDIUM 177,2023-068T,2026-06-25T21:47:29.981760,14.80225983,.00023134,86.1972,324.6490,89.1000,271.0486,0,U,56727,999,16765,.67760963E-4,.542E-5,0
IRIDIUM 174,2023-068U,2026-06-26T04:37:09.104736,14.72233415,.00024202,86.6100,349.9248,80.5390,279.6101,0,U,56728,999,16734,.11985831E-3,.78E-5,0
IRIDIUM 178,2023-068V,2026-06-25T11:47:42.753984,14.80247119,.0002557,86.6533,21.8888,84.2279,275.9234,0,U,56729,999,16759,.1235E-3,.965E-5,0
IRIDIUM 179,2023-068W,2026-06-26T02:16:06.980736,14.80228421,.00023923,86.6770,30.6433,89.1630,270.9866,0,U,56730,999,16768,.48718648E-4,.396E-5,0
